<?xml version="1.0" encoding="UTF-8"?>
<ndm xmlns:xsi="http://www.w3.org/2001/XMLSchema-instance" xsi:noNamespaceSchemaLocation="https://sanaregistry.org/r/ndmxml_unqualified/ndmxml-2.0.0-master-2.0.xsd">
<omm id="CCSDS_OMM_VERS" version="2.0">
<header><CREATION_DATE/><ORIGINATOR/></header><body><segment><metadata><OBJECT_NAME>ONEWEB-0120</OBJECT_NAME><OBJECT_ID>2020-100J</OBJECT_ID><CENTER_NAME>EARTH</CENTER_NAME><REF_FRAME>TEME</REF_FRAME><TIME_SYSTEM>UTC</TIME_SYSTEM><MEAN_ELEMENT_THEORY>SGP4</MEAN_ELEMENT_THEORY></metadata><data><meanElements><EPOCH>2025-01-24T13:47:27.338208</EPOCH><MEAN_MOTION>13.12440289</MEAN_MOTION><ECCENTRICITY>.000198</ECCENTRICITY><INCLINATION>87.8855</INCLINATION><RA_OF_ASC_NODE>91.9483</RA_OF_ASC_NODE><ARG_OF_PERICENTER>100.8787</ARG_OF_PERICENTER><MEAN_ANOMALY>259.2564</MEAN_ANOMALY></meanElements><tleParameters><EPHEMERIS_TYPE>0</EPHEMERIS_TYPE><CLASSIFICATION_TYPE>U</CLASSIFICATION_TYPE><NORAD_CAT_ID>47266</NORAD_CAT_ID><ELEMENT_SET_NO>999</ELEMENT_SET_NO><REV_AT_EPOCH>19801</REV_AT_EPOCH><BSTAR>-.13563E-3</BSTAR><MEAN_MOTION_DOT>-.36E-6</MEAN_MOTION_DOT><MEAN_MOTION_DDOT>0</MEAN_MOTION_DDOT></tleParameters></data></segment></body></omm>
<omm id="CCSDS_OMM_VERS" version="2.0">
<header><CREATION_DATE/><ORIGINATOR/></header><body><segment><metadata><OBJECT_NAME>ONEWEB-0121</OBJECT_NAME><OBJECT_ID>2020-100K</OBJECT_ID><CENTER_NAME>EARTH</CENTER_NAME><REF_FRAME>TEME</REF_FRAME><TIME_SYSTEM>UTC</TIME_SYSTEM><MEAN_ELEMENT_THEORY>SGP4</MEAN_ELEMENT_THEORY></metadata><data><meanElements><EPOCH>2025-01-24T13:30:54.681696</EPOCH><MEAN_MOTION>13.12440880</MEAN_MOTION><ECCENTRICITY>.0001792</ECCENTRICITY><INCLINATION>87.8849</INCLINATION><RA_OF_ASC_NODE>91.9300</RA_OF_ASC_NODE><ARG_OF_PERICENTER>106.2948</ARG_OF_PERICENTER><MEAN_ANOMALY>253.8377</MEAN_ANOMALY></meanElements><tleParameters><EPHEMERIS_TYPE>0</EPHEMERIS_TYPE><CLASSIFICATION_TYPE>U</CLASSIFICATION_TYPE><NORAD_CAT_ID>47267</NORAD_CAT_ID><ELEMENT_SET_NO>999</ELEMENT_SET_NO><REV_AT_EPOCH>19792</REV_AT_EPOCH><BSTAR>.10108E-2</BSTAR><MEAN_MOTION_DOT>.376E-5</MEAN_MOTION_DOT><MEAN_MOTION_DDOT>0</MEAN_MOTION_DDOT></tleParameters></data></segment></body></omm>
<omm id="CCSDS_OMM_VERS" version="2.0">
<header><CREATION_DATE/><ORIGINATOR/></header><body><segment><metadata><OBJECT_NAME>ONEWEB-0122</OBJECT_NAME><OBJECT_ID>2020-100L</OBJECT_ID><CENTER_NAME>EARTH</CENTER_NAME><REF_FRAME>TEME</REF_FRAME><TIME_SYSTEM>UTC</TIME_SYSTEM><MEAN_ELEMENT_THEORY>SGP4</MEAN_ELEMENT_THEORY></metadata><data><meanElements><EPOCH>2025-01-24T09:44:08.732832</EPOCH><MEAN_MOTION>13.12443220</MEAN_MOTION><ECCENTRICITY>.0001931</ECCENTRICITY><INCLINATION>87.8850</INCLINATION><RA_OF_ASC_NODE>91.9665</RA_OF_ASC_NODE><ARG_OF_PERICENTER>105.3339</ARG_OF_PERICENTER><MEAN_ANOMALY>254.8003</MEAN_ANOMALY></meanElements><tleParameters><EPHEMERIS_TYPE>0</EPHEMERIS_TYPE><CLASSIFICATION_TYPE>U</CLASSIFICATION_TYPE><NORAD_CAT_ID>47268</NORAD_CAT_ID><ELEMENT_SET_NO>999</ELEMENT_SET_NO><REV_AT_EPOCH>19781</REV_AT_EPOCH><BSTAR>.13403E-2</BSTAR><MEAN_MOTION_DOT>.495E-5</MEAN_MOTION_DOT><MEAN_MOTION_DDOT>0</MEAN_MOTION_DDOT></tleParameters></data></segment></body></omm>
<omm id="CCSDS_OMM_VERS" version="2.0">
<header><CREATION_DATE/><ORIGINATOR/></header><body><segment><metadata><OBJECT_NAME>ONEWEB-0123</OBJECT_NAME><OBJECT_ID>2020-100M</OBJECT_ID><CENTER_NAME>EARTH</CENTER_NAME><REF_FRAME>TEME</REF_FRAME><TIME_SYSTEM>UTC</TIME_SYSTEM><MEAN_ELEMENT_THEORY>SGP4</MEAN_ELEMENT_THEORY></metadata><data><meanElements><EPOCH>2025-01-24T13:16:54.079680</EPOCH><MEAN_MOTION>13.12442933</MEAN_MOTION><ECCENTRICITY>.0001841</ECCENTRICITY><INCLINATION>87.8852</INCLINATION><RA_OF_ASC_NODE>91.9585</RA_OF_ASC_NODE><ARG_OF_PERICENTER>99.5517</ARG_OF_PERICENTER><MEAN_ANOMALY>260.5819</MEAN_ANOMALY></meanElements><tleParameters><EPHEMERIS_TYPE>0</EPHEMERIS_TYPE><CLASSIFICATION_TYPE>U</CLASSIFICATION_TYPE><NORAD_CAT_ID>47269</NORAD_CAT_ID><ELEMENT_SET_NO>999</ELEMENT_SET_NO><REV_AT_EPOCH>19797</REV_AT_EPOCH><BSTAR>.14665E-2</BSTAR><MEAN_MOTION_DOT>.54E-5</MEAN_MOTION_DOT><MEAN_MOTION_DDOT>0</MEAN_MOTION_DDOT></tleParameters></data></segment></body></omm>
<omm id="CCSDS_OMM_VERS" version="2.0">
<header><CREATION_DATE/><ORIGINATOR/></header><body><segment><metadata><OBJECT_NAME>ONEWEB-0124</OBJECT_NAME><OBJECT_ID>2020-100N</OBJECT_ID><CENTER_NAME>EARTH</CENTER_NAME><REF_FRAME>TEME</REF_FRAME><TIME_SYSTEM>UTC</TIME_SYSTEM><MEAN_ELEMENT_THEORY>SGP4</MEAN_ELEMENT_THEORY></metadata><data><meanElements><EPOCH>2025-01-24T16:40:07.907808</EPOCH><MEAN_MOTION>13.12427211</MEAN_MOTION><ECCENTRICITY>.0001654</ECCENTRICITY><INCLINATION>87.8858</INCLINATION><RA_OF_ASC_NODE>91.9272</RA_OF_ASC_NODE><ARG_OF_PERICENTER>104.5571</ARG_OF_PERICENTER><MEAN_ANOMALY>255.5741</MEAN_ANOMALY></meanElements><tleParameters><EPHEMERIS_TYPE>0</EPHEMERIS_TYPE><CLASSIFICATION_TYPE>U</CLASSIFICATION_TYPE><NORAD_CAT_ID>47270</NORAD_CAT_ID><ELEMENT_SET_NO>999</ELEMENT_SET_NO><REV_AT_EPOCH>19787</REV_AT_EPOCH><BSTAR>.96868E-2</BSTAR><MEAN_MOTION_DOT>.3498E-4</MEAN_MOTION_DOT><MEAN_MOTION_DDOT>0</MEAN_MOTION_DDOT></tleParameters></data></segment></body></omm>
<omm id="CCSDS_OMM_VERS" version="2.0">
<header><CREATION_DATE/><ORIGINATOR/></header><body><segment><metadata><OBJECT_NAME>ONEWEB-0125</OBJECT_NAME><OBJECT_ID>2020-100P</OBJECT_ID><CENTER_NAME>EARTH</CENTER_NAME><REF_FRAME>TEME</REF_FRAME><TIME_SYSTEM>UTC</TIME_SYSTEM><MEAN_ELEMENT_THEORY>SGP4</MEAN_ELEMENT_THEORY></metadata><data><meanElements><EPOCH>2025-01-24T16:07:23.880288</EPOCH><MEAN_MOTION>13.12442838</MEAN_MOTION><ECCENTRICITY>.0001597</ECCENTRICITY><INCLINATION>87.8856</INCLINATION><RA_OF_ASC_NODE>91.8934</RA_OF_ASC_NODE><ARG_OF_PERICENTER>95.1261</ARG_OF_PERICENTER><MEAN_ANOMALY>265.0050</MEAN_ANOMALY></meanElements><tleParameters><EPHEMERIS_TYPE>0</EPHEMERIS_TYPE><CLASSIFICATION_TYPE>U</CLASSIFICATION_TYPE><NORAD_CAT_ID>47271</NORAD_CAT_ID><ELEMENT_SET_NO>999</ELEMENT_SET_NO><REV_AT_EPOCH>19793</REV_AT_EPOCH><BSTAR>-.12903E-2</BSTAR><MEAN_MOTION_DOT>-.451E-5</MEAN_MOTION_DOT><MEAN_MOTION_DDOT>0</MEAN_MOTION_DDOT></tleParameters></data></segment></body></omm>
<omm id="CCSDS_OMM_VERS" version="2.0">
<header><CREATION_DATE/><ORIGINATOR/></header><body><segment><metadata><OBJECT_NAME>ONEWEB-0126</OBJECT_NAME><OBJECT_ID>2020-100Q</OBJECT_ID><CENTER_NAME>EARTH</CENTER_NAME><REF_FRAME>TEME</REF_FRAME><TIME_SYSTEM>UTC</TIME_SYSTEM><MEAN_ELEMENT_THEORY>SGP4</MEAN_ELEMENT_THEORY></metadata><data><meanElements><EPOCH>2025-01-24T16:43:36.139584</EPOCH><MEAN_MOTION>13.12445083</MEAN_MOTION><ECCENTRICITY>.0001957</ECCENTRICITY><INCLINATION>87.8852</INCLINATION><RA_OF_ASC_NODE>91.8862</RA_OF_ASC_NODE><ARG_OF_PERICENTER>101.1086</ARG_OF_PERICENTER><MEAN_ANOMALY>259.0262</MEAN_ANOMALY></meanElements><tleParameters><EPHEMERIS_TYPE>0</EPHEMERIS_TYPE><CLASSIFICATION_TYPE>U</CLASSIFICATION_TYPE><NORAD_CAT_ID>47272</NORAD_CAT_ID><ELEMENT_SET_NO>999</ELEMENT_SET_NO><REV_AT_EPOCH>19800</REV_AT_EPOCH><BSTAR>.65722E-3</BSTAR><MEAN_MOTION_DOT>.249E-5</MEAN_MOTION_DOT><MEAN_MOTION_DDOT>0</MEAN_MOTION_DDOT></tleParameters></data></segment></body></omm>
<omm id="CCSDS_OMM_VERS" version="2.0">
<header><CREATION_DATE/><ORIGINATOR/></header><body><segment><metadata><OBJECT_NAME>ONEWEB-0127</OBJECT_NAME><OBJECT_ID>2020-100R</OBJECT_ID><CENTER_NAME>EARTH</CENTER_NAME><REF_FRAME>TEME</REF_FRAME><TIME_SYSTEM>UTC</TIME_SYSTEM><MEAN_ELEMENT_THEORY>SGP4</MEAN_ELEMENT_THEORY></metadata><data><meanElements><EPOCH>2025-01-24T17:38:30.151680</EPOCH><MEAN_MOTION>13.12441805</MEAN_MOTION><ECCENTRICITY>.0001954</ECCENTRICITY><INCLINATION>87.8854</INCLINATION><RA_OF_ASC_NODE>91.9143</RA_OF_ASC_NODE><ARG_OF_PERICENTER>103.9600</ARG_OF_PERICENTER><MEAN_ANOMALY>256.1746</MEAN_ANOMALY></meanElements><tleParameters><EPHEMERIS_TYPE>0</EPHEMERIS_TYPE><CLASSIFICATION_TYPE>U</CLASSIFICATION_TYPE><NORAD_CAT_ID>47273</NORAD_CAT_ID><ELEMENT_SET_NO>999</ELEMENT_SET_NO><REV_AT_EPOCH>19803</REV_AT_EPOCH><BSTAR>-.78208E-3</BSTAR><MEAN_MOTION_DOT>-.269E-5</MEAN_MOTION_DOT><MEAN_MOTION_DDOT>0</MEAN_MOTION_DDOT></tleParameters></data></segment></body></omm>

</ndm>
