ONEWEB-0120             
1 47266U 20100J   25024.57462197 -.00000036  00000+0 -13563-3 0  9993
2 47266  87.8855  91.9483 0001980 100.8787 259.2564 13.12440289198017
ONEWEB-0121             
1 47267U 20100K   25024.56313289  .00000376  00000+0  10108-2 0  9996
2 47267  87.8849  91.9300 0001792 106.2948 253.8377 13.12440880197927
ONEWEB-0122             
1 47268U 20100L   25024.40565663  .00000495  00000+0  13403-2 0  9998
2 47268  87.8850  91.9665 0001931 105.3339 254.8003 13.12443220197819
ONEWEB-0123             
1 47269U 20100M   25024.55340370  .00000540  00000+0  14665-2 0  9993
2 47269  87.8852  91.9585 0001841  99.5517 260.5819 13.12442933197971
ONEWEB-0124             
1 47270U 20100N   25024.69453597  .00003498  00000+0  96868-2 0  9996
2 47270  87.8858  91.9272 0001654 104.5571 255.5741 13.12427211197870
ONEWEB-0125             
1 47271U 20100P   25024.67180417 -.00000451  00000+0 -12903-2 0  9999
2 47271  87.8856  91.8934 0001597  95.1261 265.0050 13.12442838197938
ONEWEB-0126             
1 47272U 20100Q   25024.69694606  .00000249  00000+0  65722-3 0  9993
2 47272  87.8852  91.8862 0001957 101.1086 259.0262 13.12445083198000
ONEWEB-0127             
1 47273U 20100R   25024.73507120 -.00000269  00000+0 -78208-3 0  9990
2 47273  87.8854  91.9143 0001954 103.9600 256.1746 13.12441805198031
